[{"OBJECT_NAME":"TIANMU-1 19","OBJECT_ID":"2023-208A","EPOCH":"2026-03-09T22:13:36.801696","MEAN_MOTION":15.2984143,"ECCENTRICITY":0.00039292,"INCLINATION":97.4383,"RA_OF_ASC_NODE":184.9132,"ARG_OF_PERICENTER":316.2611,"MEAN_ANOMALY":43.8317,"EPHEMERIS_TYPE":0,"CLASSIFICATION_TYPE":"U","NORAD_CAT_ID":58660,"ELEMENT_SET_NO":999,"REV_AT_EPOCH":12214,"BSTAR":0.00040995676,"MEAN_MOTION_DOT":0.00011779,"MEAN_MOTION_DDOT":0},{"OBJECT_NAME":"STARLINK-36129","OBJECT_ID":"2025-281AC","EPOCH":"2026-03-09T03:43:32.636640","MEAN_MOTION":15.27575623,"ECCENTRICITY":0.00016754,"INCLINATION":43.0031,"RA_OF_ASC_NODE":346.5022,"ARG_OF_PERICENTER":285.5594,"MEAN_ANOMALY":74.5073,"EPHEMERIS_TYPE":0,"CLASSIFICATION_TYPE":"U","NORAD_CAT_ID":66874,"ELEMENT_SET_NO":999,"REV_AT_EPOCH":1609,"BSTAR":0.0012840742,"MEAN_MOTION_DOT":0.00035237,"MEAN_MOTION_DDOT":0}]
